{
    "CCSDS_OMM_VERS": "3.0",
    "COMMENT": "GENERATED VIA SPACE-TRACK.ORG API",
    "CREATION_DATE": "2025-11-23T21:08:43",
    "ORIGINATOR": "18 SPCS",
    "OBJECT_NAME": "BD-21",
    "OBJECT_ID": "2016-006A",
    "CENTER_NAME": "EARTH",
    "REF_FRAME": "TEME",
    "TIME_SYSTEM": "UTC",
    "MEAN_ELEMENT_THEORY": "SGP4",
    "EPOCH": "2025-11-22T20:11:27.189888",
    "MEAN_MOTION": "1.86231197",
    "ECCENTRICITY": "0.00032994",
    "INCLINATION": "56.5244",
    "RA_OF_ASC_NODE": "70.4425",
    "ARG_OF_PERICENTER": "275.0871",
    "MEAN_ANOMALY": "84.8735",
    "EPHEMERIS_TYPE": "0",
    "CLASSIFICATION_TYPE": "U",
    "NORAD_CAT_ID": "41315",
    "ELEMENT_SET_NO": "999",
    "REV_AT_EPOCH": "6675",
    "BSTAR": "0.00000000000000",
    "MEAN_MOTION_DOT": "-0.00000031",
    "MEAN_MOTION_DDOT": "0.0000000000000",
    "SEMIMAJOR_AXIS": "27906.169",
    "PERIOD": "773.232",
    "APOAPSIS": "21537.241",
    "PERIAPSIS": "21518.827",
    "OBJECT_TYPE": "PAYLOAD",
    "RCS_SIZE": "LARGE",
    "COUNTRY_CODE": "PRC",
    "LAUNCH_DATE": "2016-02-01",
    "SITE": "XSC",
    "DECAY_DATE": null,
    "FILE": "4896238",
    "GP_ID": "303333038",
    "TLE_LINE0": "0 BD-21",
    "TLE_LINE1": "1 41315U 16006A   25326.84128692 -.00000031  00000-0  00000-0 0  9990",
    "TLE_LINE2": "2 41315  56.5244  70.4425 0003299 275.0871  84.8735  1.86231197 66754"
}